{
  "type": "FeatureCollection",
  "features": [
    {
      "type": "Feature",
      "properties": {
        "norad_id": 40128,
        "name": "GSAT0201 (GALILEO 5)",
        "group": "gnss",
        "lat": 37.36895419124179,
        "lon": -37.194421096078536,
        "alt_km": 23151.017374163617,
        "timestamp": "2025-12-03T20:47:58.464887+00:00",
        "meta_object_name": "GSAT0201 (GALILEO 5)",
        "meta_object_id": "2014-050A",
        "meta_epoch": "2025-11-28T09:00:06.762528",
        "meta_mean_motion": 1.85519533,
        "meta_eccentricity": 0.16464881,
        "meta_inclination": 49.0938,
        "meta_ra_of_asc_node": 281.6492,
        "meta_arg_of_pericenter": 171.7362,
        "meta_mean_anomaly": 191.3851,
        "meta_ephemeris_type": 0,
        "meta_classification_type": "U",
        "meta_norad_cat_id": 40128,
        "meta_element_set_no": 999,
        "meta_rev_at_epoch": 7459,
        "meta_bstar": 0,
        "meta_mean_motion_dot": -4.8e-07,
        "meta_mean_motion_ddot": 0,
        "tle_line1": "1 40128U 14050A   25332.37507827 -.00000048  00000+0  00000+0 0  9990",
        "tle_line2": "2 40128  49.0938 281.6492 1646488 171.7362 191.3851  1.85519533 74599"
      },
      "geometry": {
        "type": "Point",
        "coordinates": [
          -37.194421096078536,
          37.36895419124179
        ]
      }
    },
    {
      "type": "Feature",
      "properties": {
        "norad_id": 40129,
        "name": "GSAT0202 (GALILEO 6)",
        "group": "gnss",
        "lat": -48.436635370048066,
        "lon": -156.97573000444672,
        "alt_km": 22114.58403193923,
        "timestamp": "2025-12-03T20:47:58.464897+00:00",
        "meta_object_name": "GSAT0202 (GALILEO 6)",
        "meta_object_id": "2014-050B",
        "meta_epoch": "2025-12-02T22:38:17.581056",
        "meta_mean_motion": 1.8552031,
        "meta_eccentricity": 0.1647571,
        "meta_inclination": 49.1042,
        "meta_ra_of_asc_node": 280.5465,
        "meta_arg_of_pericenter": 172.6616,
        "meta_mean_anomaly": 190.1192,
        "meta_ephemeris_type": 0,
        "meta_classification_type": "U",
        "meta_norad_cat_id": 40129,
        "meta_element_set_no": 999,
        "meta_rev_at_epoch": 7684,
        "meta_bstar": 0,
        "meta_mean_motion_dot": -5.9e-07,
        "meta_mean_motion_ddot": 0,
        "tle_line1": "1 40129U 14050B   25336.94325904 -.00000059  00000+0  00000+0 0  9994",
        "tle_line2": "2 40129  49.1042 280.5465 1647571 172.6616 190.1192  1.85520310 76841"
      },
      "geometry": {
        "type": "Point",
        "coordinates": [
          -156.97573000444672,
          -48.436635370048066
        ]
      }
    },
    {
      "type": "Feature",
      "properties": {
        "norad_id": 40269,
        "name": "IRNSS-1C",
        "group": "gnss",
        "lat": 1.5886790941923354,
        "lon": 107.85208711048578,
        "alt_km": 35712.83451928847,
        "timestamp": "2025-12-03T20:47:58.464909+00:00",
        "meta_object_name": "IRNSS-1C",
        "meta_object_id": "2014-061A",
        "meta_epoch": "2025-12-03T09:00:47.977056",
        "meta_mean_motion": 1.00269224,
        "meta_eccentricity": 0.0017873,
        "meta_inclination": 6.0171,
        "meta_ra_of_asc_node": 92.8087,
        "meta_arg_of_pericenter": 2.7571,
        "meta_mean_anomaly": 195.0645,
        "meta_ephemeris_type": 0,
        "meta_classification_type": "U",
        "meta_norad_cat_id": 40269,
        "meta_element_set_no": 999,
        "meta_rev_at_epoch": 4072,
        "meta_bstar": 0,
        "meta_mean_motion_dot": -1.44e-06,
        "meta_mean_motion_ddot": 0,
        "tle_line1": "1 40269U 14061A   25337.37555529 -.00000144  00000+0  00000+0 0  9992",
        "tle_line2": "2 40269   6.0171  92.8087 0017873   2.7571 195.0645  1.00269224 40729"
      },
      "geometry": {
        "type": "Point",
        "coordinates": [
          107.85208711048578,
          1.5886790941923354
        ]
      }
    },
    {
      "type": "Feature",
      "properties": {
        "norad_id": 40294,
        "name": "GPS BIIF-8  (PRN 03)",
        "group": "gnss",
        "lat": -56.37353958461621,
        "lon": -40.46609908994309,
        "alt_km": 20332.369211448113,
        "timestamp": "2025-12-03T20:47:58.464923+00:00",
        "meta_object_name": "GPS BIIF-8  (PRN 03)",
        "meta_object_id": "2014-068A",
        "meta_epoch": "2025-12-02T11:42:10.325664",
        "meta_mean_motion": 2.00564029,
        "meta_eccentricity": 0.00608197,
        "meta_inclination": 56.8498,
        "meta_ra_of_asc_node": 38.5427,
        "meta_arg_of_pericenter": 69.4176,
        "meta_mean_anomaly": 291.2841,
        "meta_ephemeris_type": 0,
        "meta_classification_type": "U",
        "meta_norad_cat_id": 40294,
        "meta_element_set_no": 999,
        "meta_rev_at_epoch": 8126,
        "meta_bstar": 0,
        "meta_mean_motion_dot": -6.5e-07,
        "meta_mean_motion_ddot": 0,
        "tle_line1": "1 40294U 14068A   25336.48761951 -.00000065  00000+0  00000+0 0  9998",
        "tle_line2": "2 40294  56.8498  38.5427 0060819  69.4176 291.2841  2.00564029 81269"
      },
      "geometry": {
        "type": "Point",
        "coordinates": [
          -40.46609908994309,
          -56.37353958461621
        ]
      }
    },
    {
      "type": "Feature",
      "properties": {
        "norad_id": 40315,
        "name": "COSMOS 2501 (702K)",
        "group": "gnss",
        "lat": -8.407847215050335,
        "lon": 21.342273815524234,
        "alt_km": 19081.894965650004,
        "timestamp": "2025-12-03T20:47:58.464934+00:00",
        "meta_object_name": "COSMOS 2501 (702K)",
        "meta_object_id": "2014-075A",
        "meta_epoch": "2025-11-30T19:17:52.497312",
        "meta_mean_motion": 2.13101305,
        "meta_eccentricity": 0.00201676,
        "meta_inclination": 63.6137,
        "meta_ra_of_asc_node": 197.2386,
        "meta_arg_of_pericenter": 204.7979,
        "meta_mean_anomaly": 155.1955,
        "meta_ephemeris_type": 0,
        "meta_classification_type": "U",
        "meta_norad_cat_id": 40315,
        "meta_element_set_no": 999,
        "meta_rev_at_epoch": 8562,
        "meta_bstar": 0,
        "meta_mean_motion_dot": 1e-06,
        "meta_mean_motion_ddot": 0,
        "tle_line1": "1 40315U 14075A   25334.80407983  .00000100  00000+0  00000+0 0  9995",
        "tle_line2": "2 40315  63.6137 197.2386 0020167 204.7979 155.1955  2.13101305 85629"
      },
      "geometry": {
        "type": "Point",
        "coordinates": [
          21.342273815524234,
          -8.407847215050335
        ]
      }
    },
    {
      "type": "Feature",
      "properties": {
        "norad_id": 40534,
        "name": "GPS BIIF-9  (PRN 26)",
        "group": "gnss",
        "lat": -2.6504100114412963,
        "lon": 34.251747174128546,
        "alt_km": 20414.1375818933,
        "timestamp": "2025-12-03T20:47:58.464945+00:00",
        "meta_object_name": "GPS BIIF-9  (PRN 26)",
        "meta_object_id": "2015-013A",
        "meta_epoch": "2025-12-02T02:51:32.874336",
        "meta_mean_motion": 2.00563085,
        "meta_eccentricity": 0.01065801,
        "meta_inclination": 53.1996,
        "meta_ra_of_asc_node": 212.3303,
        "meta_arg_of_pericenter": 38.2186,
        "meta_mean_anomaly": 322.6251,
        "meta_ephemeris_type": 0,
        "meta_classification_type": "U",
        "meta_norad_cat_id": 40534,
        "meta_element_set_no": 999,
        "meta_rev_at_epoch": 7787,
        "meta_bstar": 0,
        "meta_mean_motion_dot": 7.3e-07,
        "meta_mean_motion_ddot": 0,
        "tle_line1": "1 40534U 15013A   25336.11913049  .00000073  00000+0  00000+0 0  9991",
        "tle_line2": "2 40534  53.1996 212.3303 0106580  38.2186 322.6251  2.00563085 77872"
      },
      "geometry": {
        "type": "Point",
        "coordinates": [
          34.251747174128546,
          -2.6504100114412963
        ]
      }
    },
    {
      "type": "Feature",
      "properties": {
        "norad_id": 40544,
        "name": "GSAT0203 (GALILEO 7)",
        "group": "gnss",
        "lat": -6.982949474248328,
        "lon": -17.664365821362452,
        "alt_km": 23220.860629073577,
        "timestamp": "2025-12-03T20:47:58.464957+00:00",
        "meta_object_name": "GSAT0203 (GALILEO 7)",
        "meta_object_id": "2015-017A",
        "meta_epoch": "2025-12-02T16:58:12.961344",
        "meta_mean_motion": 1.70475735,
        "meta_eccentricity": 0.0006521,
        "meta_inclination": 56.849,
        "meta_ra_of_asc_node": 346.954,
        "meta_arg_of_pericenter": 268.5764,
        "meta_mean_anomaly": 91.3871,
        "meta_ephemeris_type": 0,
        "meta_classification_type": "U",
        "meta_norad_cat_id": 40544,
        "meta_element_set_no": 999,
        "meta_rev_at_epoch": 6585,
        "meta_bstar": 0,
        "meta_mean_motion_dot": -6.5e-07,
        "meta_mean_motion_ddot": 0,
        "tle_line1": "1 40544U 15017A   25336.70709446 -.00000065  00000+0  00000+0 0  9997",
        "tle_line2": "2 40544  56.8490 346.9540 0006521 268.5764  91.3871  1.70475735 65856"
      },
      "geometry": {
        "type": "Point",
        "coordinates": [
          -17.664365821362452,
          -6.982949474248328
        ]
      }
    }
  ]
}